MALLIGYONG-1            
1 58400U 23179A   24129.21321020  .00007026  00000+0  30727-3 0  9994
2 58400  97.4093  16.6689 0010640  51.8660 308.3533 15.22330024 25648
